NORAD_CAT_ID,OBJECT_NAME,OBJECT_TYPE,EPOCH,MEAN_MOTION,ECCENTRICITY,INCLINATION,RA_OF_ASC_NODE,ARG_OF_PERICENTER,MEAN_ANOMALY,BSTAR,MEAN_MOTION_DOT,MEAN_MOTION_DDOT,TLE_LINE0,TLE_LINE1,TLE_LINE2,SEMIMAJOR_AXIS,PERIOD,APOGEE,PERIGEE,DECAYED
52672.0,STARLINK-4073,PAYLOAD,2024-05-15 17:22:13,15.08874002,7.15e-05,53.218,250.2887,124.9699,235.136,-5.7563e-05,-1.205e-05,0.0,0 STARLINK-4073,1 52672U 22053S   24136.72377313 -.00001205  00000-0 -57563-4 0  9993,2 52672  53.2180 250.2887 0000715 124.9699 235.1360 15.08874002110959,6917.776,95.435,540.136,539.147,0.0
52672.0,STARLINK-4073,PAYLOAD,2024-05-16 12:26:51,15.08860284,2.59e-05,53.2192,246.719,92.24,267.8622,-0.00034086,-5.711e-05,0.0,0 STARLINK-4073,1 52672U 22053S   24137.51865630 -.00005711  00000-0 -34086-3 0  9995,2 52672  53.2192 246.7190 0000259  92.2400 267.8622 15.08860284110656,6917.818,95.436,539.863,539.504,0.0
52672.0,STARLINK-4073,PAYLOAD,2024-05-16 14:02:14,15.08868862,4.27e-05,53.2176,246.4234,295.4547,64.6401,-0.00018961,-3.306e-05,0.0,0 STARLINK-4073,1 52672U 22053S   24137.58488680 -.00003306  00000-0 -18961-3 0  9990,2 52672  53.2176 246.4234 0000427 295.4547  64.6401 15.08868862111086,6917.792,95.436,539.953,539.362,0.0
52672.0,STARLINK-4073,PAYLOAD,2024-05-16 17:13:00,15.08870548,3.53e-05,53.217,245.827,307.3921,52.7039,-0.00019013,-3.315e-05,0.0,0 STARLINK-4073,1 52672U 22053S   24137.71736321 -.00003315  00000-0 -19013-3 0  9992,2 52672  53.2170 245.8270 0000353 307.3921  52.7039 15.08870548110684,6917.787,95.436,539.896,539.408,0.0
52672.0,STARLINK-4073,PAYLOAD,2024-05-17 13:53:02,15.0883667,8.69e-05,53.2157,241.9642,53.4911,306.6161,-3.3354e-05,-8.18e-06,0.0,0 STARLINK-4073,1 52672U 22053S   24138.57849885 -.00000818  00000-0 -33354-4 0  9997,2 52672  53.2157 241.9642 0000869  53.4911 306.6161 15.08836670110819,6917.891,95.438,540.357,539.154,0.0
52672.0,STARLINK-4073,PAYLOAD,2024-05-17 17:03:48,15.08844524,0.0001044,53.2165,241.3679,59.0846,301.0248,0.00010253,1.345e-05,0.0,0 STARLINK-4073,1 52672U 22053S   24138.71097561  .00001345  00000-0  10253-3 0  9995,2 52672  53.2165 241.3679 0001044  59.0846 301.0248 15.08844524111258,6917.867,95.437,540.454,539.009,0.0
52672.0,STARLINK-4073,PAYLOAD,2024-05-18 13:43:48,15.08856695,8.05e-05,53.216,237.5054,80.7186,279.3897,0.00024025,3.54e-05,0.0,0 STARLINK-4073,1 52672U 22053S   24139.57209190  .00003540  00000-0  24025-3 0  9994,2 52672  53.2160 237.5054 0000805  80.7186 279.3897 15.08856695110965,6917.829,95.436,540.251,539.137,0.0
52672.0,STARLINK-4073,PAYLOAD,2024-05-19 13:34:37,15.08830618,9.57e-05,53.2163,233.0417,59.8325,300.2762,-0.00013706,-2.468e-05,0.0,0 STARLINK-4073,1 52672U 22053S   24140.56571042 -.00002468  00000-0 -13706-3 0  9997,2 52672  53.2163 233.0417 0000957  59.8325 300.2762 15.08830618111538,6917.909,95.438,540.436,539.112,0.0
52672.0,STARLINK-4073,PAYLOAD,2024-05-19 16:45:23,15.08830291,7.45e-05,53.2155,232.448,65.1105,294.9965,-9.2706e-05,-1.762e-05,0.0,0 STARLINK-4073,1 52672U 22053S   24140.69819042 -.00001762  00000-0 -92706-4 0  9990,2 52672  53.2155 232.4480 0000745  65.1105 294.9965 15.08830291111130,6917.91,95.438,540.29,539.26,0.0
52672.0,STARLINK-4073,PAYLOAD,2024-05-20 11:50:01,15.08844446,0.0001204,53.217,228.8811,104.0277,256.0849,-8.9533e-06,-4.3e-06,0.0,0 STARLINK-4073,1 52672U 22053S   24141.49307224 -.00000430  00000-0 -89533-5 0  9999,2 52672  53.2170 228.8811 0001204 104.0277 256.0849 15.08844446111258,6917.867,95.437,540.565,538.899,0.0
52672.0,STARLINK-4073,PAYLOAD,2024-05-20 13:25:23,15.08857685,9.08e-05,53.217,228.5801,84.6183,275.4913,0.00011938,1.614e-05,0.0,0 STARLINK-4073,1 52672U 22053S   24141.55930057  .00001614  00000-0  11938-3 0  9997,2 52672  53.2170 228.5801 0000908  84.6183 275.4913 15.08857685111686,6917.826,95.436,540.319,539.063,0.0
52672.0,STARLINK-4073,PAYLOAD,2024-05-21 05:19:16,15.08819861,9.65e-05,53.217,225.6083,65.3992,294.7101,0.00023674,3.48e-05,0.0,0 STARLINK-4073,1 52672U 22053S   24142.22172294  .00003480  00000-0  23674-3 0  9996,2 52672  53.2170 225.6083 0000965  65.3992 294.7101 15.08819861111365,6917.942,95.439,540.475,539.139,0.0
52672.0,STARLINK-4073,PAYLOAD,2024-05-21 13:16:12,15.0883565,9.57e-05,53.2164,224.1232,64.2628,295.8463,0.00014618,2.039e-05,0.0,0 STARLINK-4073,1 52672U 22053S   24142.55291924  .00002039  00000-0  14618-3 0  9991,2 52672  53.2164 224.1232 0000957  64.2628 295.8463 15.08835650111416,6917.894,95.438,540.421,539.097,0.0
52672.0,STARLINK-4073,PAYLOAD,2024-05-22 11:31:35,15.08847723,0.00015,53.2171,219.9624,53.1224,306.9905,9.3369e-05,1.199e-05,0.0,0 STARLINK-4073,1 52672U 22053S   24143.48027654  .00001199  00000-0  93369-4 0  9998,2 52672  53.2171 219.9624 0001500  53.1224 306.9905 15.08847723111975,6917.857,95.437,540.759,538.684,0.0
52672.0,STARLINK-4073,PAYLOAD,2024-05-23 05:00:51,15.08820118,0.0001986,53.2167,216.6941,45.7434,314.3721,0.00029298,4.375e-05,0.0,0 STARLINK-4073,1 52672U 22053S   24144.20892858  .00004375  00000-0  29298-3 0  9993,2 52672  53.2167 216.6941 0001986  45.7434 314.3721 15.08820118111668,6917.941,95.439,541.18,538.432,0.0
52672.0,STARLINK-4073,PAYLOAD,2024-05-23 11:22:23,15.08833314,0.0001323,53.2187,215.5023,83.9546,276.1597,1.8089e-05,0.0,0.0,0 STARLINK-4073,1 52672U 22053S   24144.47388633 -.00000000  00000-0  18089-4 0  9992,2 52672  53.2187 215.5023 0001323  83.9546 276.1597 15.08833314111705,6917.901,95.438,540.681,538.851,0.0
52672.0,STARLINK-4073,PAYLOAD,2024-05-24 04:51:37,15.08845366,0.0001323,53.2174,212.2258,95.0716,265.0427,5.1656e-05,5.34e-06,0.0,0 STARLINK-4073,1 52672U 22053S   24145.20251695  .00000534  00000-0  51656-4 0  9999,2 52672  53.2174 212.2258 0001323  95.0716 265.0427 15.08845366111819,6917.864,95.437,540.644,538.814,0.0
52672.0,STARLINK-4073,PAYLOAD,2024-05-24 11:13:08,15.08863912,0.0001229,53.2173,211.0377,86.8548,273.2585,0.00014481,2.019e-05,0.0,0 STARLINK-4073,1 52672U 22053S   24145.46746063  .00002019  00000-0  14481-3 0  9999,2 52672  53.2173 211.0377 0001229  86.8548 273.2585 15.08863912111850,6917.807,95.436,540.522,538.822,0.0
52672.0,STARLINK-4073,PAYLOAD,2024-05-24 14:23:54,15.08865536,0.0001178,53.217,210.4418,88.0659,272.0468,0.00014267,1.985e-05,0.0,0 STARLINK-4073,1 52672U 22053S   24145.59993776  .00001985  00000-0  14267-3 0  9991,2 52672  53.2170 210.4418 0001178  88.0659 272.0468 15.08865536112296,6917.802,95.436,540.482,538.852,0.0
52672.0,STARLINK-4073,PAYLOAD,2024-05-24 20:45:28,15.08840363,0.0001204,53.2175,209.2537,81.6679,278.4449,-7.5695e-05,-1.492e-05,0.0,0 STARLINK-4073,1 52672U 22053S   24145.86491733 -.00001492  00000-0 -75695-4 0  9995,2 52672  53.2175 209.2537 0001204  81.6679 278.4449 15.08840363111918,6917.879,95.438,540.577,538.911,0.0
52672.0,STARLINK-4073,PAYLOAD,2024-05-25 11:03:58,15.08826519,0.0001346,53.2175,206.5826,95.5459,264.5687,3.5177e-05,2.72e-06,0.0,0 STARLINK-4073,1 52672U 22053S   24146.46108876  .00000272  00000-0  35177-4 0  9999,2 52672  53.2175 206.5826 0001346  95.5459 264.5687 15.08826519112004,6917.922,95.438,540.718,538.855,0.0
52672.0,STARLINK-4073,PAYLOAD,2024-05-26 10:54:44,15.0884387,0.0001192,53.2174,202.1265,92.406,267.7068,-3.5694e-05,-8.56e-06,0.0,0 STARLINK-4073,1 52672U 22053S   24147.45468178 -.00000856  00000-0 -35694-4 0  9997,2 52672  53.2174 202.1265 0001192  92.4060 267.7068 15.08843870112158,6917.869,95.437,540.558,538.909,0.0
52672.0,STARLINK-4073,PAYLOAD,2024-05-27 10:45:32,15.08832741,0.0001264,53.2169,197.6551,89.7709,270.3428,8.7611e-05,1.106e-05,0.0,0 STARLINK-4073,1 52672U 22053S   24148.44828833  .00001106  00000-0  87611-4 0  9998,2 52672  53.2169 197.6551 0001264  89.7709 270.3428 15.08832741112309,6917.903,95.438,540.642,538.893,0.0
52672.0,STARLINK-4073,PAYLOAD,2024-05-28 12:11:41,15.08843934,0.0001313,53.2169,192.8969,81.4085,278.7056,0.00012162,1.648e-05,0.0,0 STARLINK-4073,1 52672U 22053S   24149.50812197  .00001648  00000-0  12162-3 0  9991,2 52672  53.2169 192.8969 0001313  81.4085 278.7056 15.08843934112462,6917.868,95.437,540.642,538.825,0.0
52672.0,STARLINK-4073,PAYLOAD,2024-05-29 02:30:10,15.08838101,0.0001226,53.2163,190.2266,89.463,270.6503,8.8907e-05,1.127e-05,0.0,0 STARLINK-4073,1 52672U 22053S   24150.10428577  .00001127  00000-0  88907-4 0  9997,2 52672  53.2163 190.2266 0001226  89.4630 270.6503 15.08838101112553,6917.886,95.438,540.599,538.903,0.0
52672.0,STARLINK-4073,PAYLOAD,2024-05-29 08:51:43,15.08838477,0.0001325,53.2165,189.0342,87.41,272.7043,3.9255e-05,3.37e-06,0.0,0 STARLINK-4073,1 52672U 22053S   24150.36924795  .00000337  00000-0  39255-4 0  9992,2 52672  53.2165 189.0342 0001325  87.4100 272.7043 15.08838477113016,6917.885,95.438,540.667,538.833,0.0
52672.0,STARLINK-4073,PAYLOAD,2024-05-30 08:42:29,15.08847133,0.000139,53.2164,184.5739,85.8872,274.2279,4.1328e-05,3.7e-06,0.0,0 STARLINK-4073,1 52672U 22053S   24151.36284175  .00000370  00000-0  41328-4 0  9995,2 52672  53.2164 184.5739 0001390  85.8872 274.2279 15.08847133112741,6917.859,95.437,540.685,538.762,0.0
52672.0,STARLINK-4073,PAYLOAD,2024-05-31 08:33:16,15.0884024,0.0001395,53.2166,180.1127,96.7383,263.3768,3.1695e-05,2.17e-06,0.0,0 STARLINK-4073,1 52672U 22053S   24152.35644499  .00000217  00000-0  31695-4 0  9990,2 52672  53.2166 180.1127 0001395  96.7383 263.3768 15.08840240113317,6917.88,95.438,540.71,538.78,0.0
52672.0,STARLINK-4073,PAYLOAD,2024-06-01 05:13:17,15.0883991,0.0001439,53.2169,176.2472,94.3793,265.7364,2.3099e-05,8e-07,0.0,0 STARLINK-4073,1 52672U 22053S   24153.21756523  .00000080  00000-0  23099-4 0  9995,2 52672  53.2169 176.2472 0001439  94.3793 265.7364 15.08839910113025,6917.881,95.438,540.741,538.75,0.0
52672.0,STARLINK-4073,PAYLOAD,2024-06-01 08:24:03,15.08841073,0.0001413,53.2168,175.6532,92.7986,267.3168,3.1687e-05,2.16e-06,0.0,0 STARLINK-4073,1 52672U 22053S   24153.35004423  .00000216  00000-0  31687-4 0  9998,2 52672  53.2168 175.6532 0001413  92.7986 267.3168 15.08841073113463,6917.877,95.437,540.72,538.765,0.0
